[{"OBJECT_NAME":"STARLINK-35823","OBJECT_ID":"2025-254N","EPOCH":"2026-03-09T17:07:55.636032","MEAN_MOTION":15.30200579,"ECCENTRICITY":0.0001111,"INCLINATION":53.1602,"RA_OF_ASC_NODE":232.0348,"ARG_OF_PERICENTER":80.6508,"MEAN_ANOMALY":279.4618,"EPHEMERIS_TYPE":0,"CLASSIFICATION_TYPE":"U","NORAD_CAT_ID":66360,"ELEMENT_SET_NO":999,"REV_AT_EPOCH":1898,"BSTAR":0.0011335385,"MEAN_MOTION_DOT":0.00033364,"MEAN_MOTION_DDOT":0},{"OBJECT_NAME":"CZ-4B DEB","OBJECT_ID":"2008-053J","EPOCH":"2026-03-09T11:59:22.469568","MEAN_MOTION":15.1637526,"ECCENTRICITY":0.00601661,"INCLINATION":97.7872,"RA_OF_ASC_NODE":170.5072,"ARG_OF_PERICENTER":304.792,"MEAN_ANOMALY":54.7659,"EPHEMERIS_TYPE":0,"CLASSIFICATION_TYPE":"U","NORAD_CAT_ID":35573,"ELEMENT_SET_NO":999,"REV_AT_EPOCH":91868,"BSTAR":0.0017688276,"MEAN_MOTION_DOT":0.00036031,"MEAN_MOTION_DDOT":0}]
